{
  "type": "FeatureCollection",
  "features": [
    {
      "type": "Feature",
      "geometry": {
        "type": "Polygon",
        "coordinates": [
          [
            [
              493.0,
              289.0
            ],
            [
              493.0,
              330.0
            ],
            [
              494.0,
              331.0
            ],
            [
              496.0,
              331.0
            ],
            [
              497.0,
              332.0
            ],
            [
              502.0,
              332.0
            ],
            [
              503.0,
              333.0
            ],
            [
              523.0,
              333.0
            ],
            [
              524.0,
              332.0
            ],
            [
              528.0,
              332.0
            ],
            [
              529.0,
              331.0
            ],
            [
              531.0,
              331.0
            ],
            [
              532.0,
              330.0
            ],
            [
              533.0,
              330.0
            ],
            [
              534.0,
              329.0
            ],
            [
              535.0,
              329.0
            ],
            [
              536.0,
              330.0
            ],
            [
              538.0,
              330.0
            ],
            [
              539.0,
              329.0
            ],
            [
              542.0,
              329.0
            ],
            [
              543.0,
              330.0
            ],
            [
              551.0,
              330.0
            ],
            [
              552.0,
              331.0
            ],
            [
              556.0,
              331.0
            ],
            [
              557.0,
              332.0
            ],
            [
              558.0,
              332.0
            ],
            [
              559.0,
              333.0
            ],
            [
              570.0,
              333.0
            ],
            [
              572.0,
              331.0
            ],
            [
              572.0,
              330.0
            ],
            [
              573.0,
              329.0
            ],
            [
              573.0,
              328.0
            ],
            [
              574.0,
              327.0
            ],
            [
              574.0,
              289.0
            ],
            [
              493.0,
              289.0
            ]
          ]
        ]
      },
      "properties": {
        "class": "building",
        "confidence": 0.95,
        "source": "VISTARA-AI-YOLOv8"
      }
    },
    {
      "type": "Feature",
      "geometry": {
        "type": "Polygon",
        "coordinates": [
          [
            [
              34.0,
              274.0
            ],
            [
              35.0,
              275.0
            ],
            [
              34.0,
              276.0
            ],
            [
              33.0,
              276.0
            ],
            [
              32.0,
              277.0
            ],
            [
              16.0,
              277.0
            ],
            [
              15.0,
              278.0
            ],
            [
              14.0,
              278.0
            ],
            [
              13.0,
              279.0
            ],
            [
              12.0,
              279.0
            ],
            [
              12.0,
              313.0
            ],
            [
              20.0,
              313.0
            ],
            [
              21.0,
              314.0
            ],
            [
              49.0,
              314.0
            ],
            [
              51.0,
              312.0
            ],
            [
              52.0,
              312.0
            ],
            [
              52.0,
              275.0
            ],
            [
              51.0,
              274.0
            ],
            [
              34.0,
              274.0
            ]
          ]
        ]
      },
      "properties": {
        "class": "building",
        "confidence": 0.95,
        "source": "VISTARA-AI-YOLOv8"
      }
    },
    {
      "type": "Feature",
      "geometry": {
        "type": "Polygon",
        "coordinates": [
          [
            [
              73.0,
              205.0
            ],
            [
              73.0,
              223.0
            ],
            [
              75.0,
              225.0
            ],
            [
              75.0,
              226.0
            ],
            [
              76.0,
              227.0
            ],
            [
              76.0,
              229.0
            ],
            [
              75.0,
              230.0
            ],
            [
              75.0,
              235.0
            ],
            [
              74.0,
              236.0
            ],
            [
              74.0,
              237.0
            ],
            [
              73.0,
              238.0
            ],
            [
              73.0,
              247.0
            ],
            [
              76.0,
              247.0
            ],
            [
              77.0,
              248.0
            ],
            [
              127.0,
              248.0
            ],
            [
              128.0,
              247.0
            ],
            [
              130.0,
              247.0
            ],
            [
              131.0,
              246.0
            ],
            [
              132.0,
              246.0
            ],
            [
              132.0,
              243.0
            ],
            [
              133.0,
              242.0
            ],
            [
              133.0,
              205.0
            ],
            [
              73.0,
              205.0
            ]
          ]
        ]
      },
      "properties": {
        "class": "building",
        "confidence": 0.95,
        "source": "VISTARA-AI-YOLOv8"
      }
    },
    {
      "type": "Feature",
      "geometry": {
        "type": "Polygon",
        "coordinates": [
          [
            [
              19.0,
              205.0
            ],
            [
              19.0,
              222.0
            ],
            [
              20.0,
              221.0
            ],
            [
              21.0,
              222.0
            ],
            [
              32.0,
              222.0
            ],
            [
              33.0,
              221.0
            ],
            [
              34.0,
              221.0
            ],
            [
              36.0,
              219.0
            ],
            [
              36.0,
              213.0
            ],
            [
              35.0,
              212.0
            ],
            [
              35.0,
              209.0
            ],
            [
              34.0,
              208.0
            ],
            [
              34.0,
              207.0
            ],
            [
              33.0,
              206.0
            ],
            [
              33.0,
              205.0
            ],
            [
              19.0,
              205.0
            ]
          ]
        ]
      },
      "properties": {
        "class": "building",
        "confidence": 0.95,
        "source": "VISTARA-AI-YOLOv8"
      }
    },
    {
      "type": "Feature",
      "geometry": {
        "type": "Polygon",
        "coordinates": [
          [
            [
              328.0,
              168.0
            ],
            [
              328.0,
              186.0
            ],
            [
              329.0,
              187.0
            ],
            [
              329.0,
              189.0
            ],
            [
              330.0,
              189.0
            ],
            [
              331.0,
              190.0
            ],
            [
              333.0,
              190.0
            ],
            [
              334.0,
              191.0
            ],
            [
              348.0,
              191.0
            ],
            [
              350.0,
              189.0
            ],
            [
              350.0,
              188.0
            ],
            [
              351.0,
              187.0
            ],
            [
              351.0,
              168.0
            ],
            [
              328.0,
              168.0
            ]
          ]
        ]
      },
      "properties": {
        "class": "building",
        "confidence": 0.95,
        "source": "VISTARA-AI-YOLOv8"
      }
    },
    {
      "type": "Feature",
      "geometry": {
        "type": "Polygon",
        "coordinates": [
          [
            [
              477.0,
              92.0
            ],
            [
              477.0,
              185.0
            ],
            [
              544.0,
              185.0
            ],
            [
              546.0,
              183.0
            ],
            [
              546.0,
              182.0
            ],
            [
              547.0,
              181.0
            ],
            [
              547.0,
              178.0
            ],
            [
              548.0,
              177.0
            ],
            [
              548.0,
              168.0
            ],
            [
              547.0,
              167.0
            ],
            [
              547.0,
              135.0
            ],
            [
              546.0,
              134.0
            ],
            [
              546.0,
              102.0
            ],
            [
              545.0,
              101.0
            ],
            [
              545.0,
              98.0
            ],
            [
              544.0,
              97.0
            ],
            [
              544.0,
              96.0
            ],
            [
              543.0,
              95.0
            ],
            [
              542.0,
              95.0
            ],
            [
              540.0,
              93.0
            ],
            [
              539.0,
              93.0
            ],
            [
              538.0,
              92.0
            ],
            [
              527.0,
              92.0
            ],
            [
              526.0,
              93.0
            ],
            [
              525.0,
              92.0
            ],
            [
              477.0,
              92.0
            ]
          ]
        ]
      },
      "properties": {
        "class": "building",
        "confidence": 0.95,
        "source": "VISTARA-AI-YOLOv8"
      }
    },
    {
      "type": "Feature",
      "geometry": {
        "type": "Polygon",
        "coordinates": [
          [
            [
              1.0,
              88.0
            ],
            [
              1.0,
              141.0
            ],
            [
              14.0,
              141.0
            ],
            [
              15.0,
              140.0
            ],
            [
              20.0,
              140.0
            ],
            [
              21.0,
              139.0
            ],
            [
              21.0,
              138.0
            ],
            [
              23.0,
              136.0
            ],
            [
              23.0,
              135.0
            ],
            [
              24.0,
              134.0
            ],
            [
              24.0,
              133.0
            ],
            [
              25.0,
              132.0
            ],
            [
              28.0,
              132.0
            ],
            [
              30.0,
              134.0
            ],
            [
              35.0,
              134.0
            ],
            [
              37.0,
              132.0
            ],
            [
              41.0,
              132.0
            ],
            [
              42.0,
              131.0
            ],
            [
              58.0,
              131.0
            ],
            [
              59.0,
              132.0
            ],
            [
              64.0,
              132.0
            ],
            [
              65.0,
              131.0
            ],
            [
              67.0,
              131.0
            ],
            [
              68.0,
              130.0
            ],
            [
              68.0,
              90.0
            ],
            [
              67.0,
              89.0
            ],
            [
              67.0,
              88.0
            ],
            [
              1.0,
              88.0
            ]
          ]
        ]
      },
      "properties": {
        "class": "building",
        "confidence": 0.95,
        "source": "VISTARA-AI-YOLOv8"
      }
    },
    {
      "type": "Feature",
      "geometry": {
        "type": "Polygon",
        "coordinates": [
          [
            [
              300.0,
              52.0
            ],
            [
              299.0,
              53.0
            ],
            [
              296.0,
              53.0
            ],
            [
              295.0,
              54.0
            ],
            [
              290.0,
              54.0
            ],
            [
              289.0,
              55.0
            ],
            [
              287.0,
              55.0
            ],
            [
              286.0,
              56.0
            ],
            [
              284.0,
              56.0
            ],
            [
              283.0,
              57.0
            ],
            [
              271.0,
              57.0
            ],
            [
              271.0,
              99.0
            ],
            [
              330.0,
              99.0
            ],
            [
              331.0,
              98.0
            ],
            [
              332.0,
              98.0
            ],
            [
              333.0,
              97.0
            ],
            [
              333.0,
              95.0
            ],
            [
              334.0,
              94.0
            ],
            [
              334.0,
              73.0
            ],
            [
              335.0,
              72.0
            ],
            [
              335.0,
              68.0
            ],
            [
              336.0,
              67.0
            ],
            [
              336.0,
              60.0
            ],
            [
              335.0,
              59.0
            ],
            [
              335.0,
              55.0
            ],
            [
              334.0,
              54.0
            ],
            [
              334.0,
              52.0
            ],
            [
              300.0,
              52.0
            ]
          ]
        ]
      },
      "properties": {
        "class": "building",
        "confidence": 0.95,
        "source": "VISTARA-AI-YOLOv8"
      }
    },
    {
      "type": "Feature",
      "geometry": {
        "type": "Polygon",
        "coordinates": [
          [
            [
              106.0,
              39.0
            ],
            [
              105.0,
              40.0
            ],
            [
              105.0,
              41.0
            ],
            [
              103.0,
              43.0
            ],
            [
              103.0,
              45.0
            ],
            [
              102.0,
              46.0
            ],
            [
              102.0,
              47.0
            ],
            [
              101.0,
              48.0
            ],
            [
              101.0,
              49.0
            ],
            [
              100.0,
              50.0
            ],
            [
              100.0,
              72.0
            ],
            [
              101.0,
              73.0
            ],
            [
              101.0,
              74.0
            ],
            [
              102.0,
              75.0
            ],
            [
              103.0,
              75.0
            ],
            [
              104.0,
              76.0
            ],
            [
              106.0,
              76.0
            ],
            [
              107.0,
              77.0
            ],
            [
              130.0,
              77.0
            ],
            [
              131.0,
              76.0
            ],
            [
              131.0,
              55.0
            ],
            [
              127.0,
              51.0
            ],
            [
              126.0,
              51.0
            ],
            [
              123.0,
              48.0
            ],
            [
              123.0,
              47.0
            ],
            [
              122.0,
              46.0
            ],
            [
              122.0,
              42.0
            ],
            [
              123.0,
              41.0
            ],
            [
              123.0,
              40.0
            ],
            [
              124.0,
              39.0
            ],
            [
              106.0,
              39.0
            ]
          ]
        ]
      },
      "properties": {
        "class": "building",
        "confidence": 0.95,
        "source": "VISTARA-AI-YOLOv8"
      }
    },
    {
      "type": "Feature",
      "geometry": {
        "type": "Polygon",
        "coordinates": [
          [
            [
              123.0,
              9.0
            ],
            [
              124.0,
              10.0
            ],
            [
              125.0,
              10.0
            ],
            [
              127.0,
              12.0
            ],
            [
              127.0,
              13.0
            ],
            [
              126.0,
              14.0
            ],
            [
              126.0,
              16.0
            ],
            [
              124.0,
              18.0
            ],
            [
              123.0,
              18.0
            ],
            [
              122.0,
              19.0
            ],
            [
              120.0,
              19.0
            ],
            [
              120.0,
              28.0
            ],
            [
              122.0,
              28.0
            ],
            [
              123.0,
              29.0
            ],
            [
              126.0,
              29.0
            ],
            [
              127.0,
              30.0
            ],
            [
              128.0,
              30.0
            ],
            [
              130.0,
              32.0
            ],
            [
              134.0,
              32.0
            ],
            [
              137.0,
              29.0
            ],
            [
              137.0,
              28.0
            ],
            [
              138.0,
              27.0
            ],
            [
              138.0,
              17.0
            ],
            [
              137.0,
              16.0
            ],
            [
              137.0,
              15.0
            ],
            [
              136.0,
              14.0
            ],
            [
              136.0,
              10.0
            ],
            [
              135.0,
              9.0
            ],
            [
              123.0,
              9.0
            ]
          ]
        ]
      },
      "properties": {
        "class": "building",
        "confidence": 0.95,
        "source": "VISTARA-AI-YOLOv8"
      }
    },
    {
      "type": "Feature",
      "geometry": {
        "type": "Polygon",
        "coordinates": [
          [
            [
              91.0,
              8.0
            ],
            [
              91.0,
              28.0
            ],
            [
              114.0,
              28.0
            ],
            [
              115.0,
              27.0
            ],
            [
              116.0,
              27.0
            ],
            [
              116.0,
              21.0
            ],
            [
              117.0,
              20.0
            ],
            [
              116.0,
              19.0
            ],
            [
              116.0,
              17.0
            ],
            [
              112.0,
              13.0
            ],
            [
              111.0,
              13.0
            ],
            [
              108.0,
              16.0
            ],
            [
              107.0,
              16.0
            ],
            [
              105.0,
              14.0
            ],
            [
              104.0,
              14.0
            ],
            [
              103.0,
              13.0
            ],
            [
              103.0,
              10.0
            ],
            [
              104.0,
              9.0
            ],
            [
              105.0,
              9.0
            ],
            [
              106.0,
              8.0
            ],
            [
              91.0,
              8.0
            ]
          ]
        ]
      },
      "properties": {
        "class": "building",
        "confidence": 0.95,
        "source": "VISTARA-AI-YOLOv8"
      }
    },
    {
      "type": "Feature",
      "geometry": {
        "type": "Polygon",
        "coordinates": [
          [
            [
              472.0,
              5.0
            ],
            [
              472.0,
              20.0
            ],
            [
              498.0,
              20.0
            ],
            [
              499.0,
              19.0
            ],
            [
              500.0,
              19.0
            ],
            [
              501.0,
              18.0
            ],
            [
              502.0,
              18.0
            ],
            [
              504.0,
              16.0
            ],
            [
              504.0,
              5.0
            ],
            [
              472.0,
              5.0
            ]
          ]
        ]
      },
      "properties": {
        "class": "building",
        "confidence": 0.95,
        "source": "VISTARA-AI-YOLOv8"
      }
    },
    {
      "type": "Feature",
      "geometry": {
        "type": "Polygon",
        "coordinates": [
          [
            [
              191.0,
              5.0
            ],
            [
              191.0,
              35.0
            ],
            [
              192.0,
              36.0
            ],
            [
              198.0,
              36.0
            ],
            [
              200.0,
              34.0
            ],
            [
              201.0,
              34.0
            ],
            [
              202.0,
              33.0
            ],
            [
              209.0,
              33.0
            ],
            [
              213.0,
              37.0
            ],
            [
              246.0,
              37.0
            ],
            [
              248.0,
              35.0
            ],
            [
              248.0,
              34.0
            ],
            [
              249.0,
              33.0
            ],
            [
              249.0,
              17.0
            ],
            [
              250.0,
              16.0
            ],
            [
              250.0,
              5.0
            ],
            [
              191.0,
              5.0
            ]
          ]
        ]
      },
      "properties": {
        "class": "building",
        "confidence": 0.95,
        "source": "VISTARA-AI-YOLOv8"
      }
    }
  ]
}